NOAA 18                 
1 28654U 05018A   24277.17299635  .00001091  00000+0  60398-3 0  9992
2 28654  98.8672 353.2104 0015199 116.3291 243.9444 14.13352036998513
